NORAD_CAT_ID,OBJECT_NAME,OBJECT_TYPE,EPOCH,MEAN_MOTION,ECCENTRICITY,INCLINATION,RA_OF_ASC_NODE,ARG_OF_PERICENTER,MEAN_ANOMALY,BSTAR,MEAN_MOTION_DOT,MEAN_MOTION_DDOT,TLE_LINE0,TLE_LINE1,TLE_LINE2,SEMIMAJOR_AXIS,PERIOD,APOGEE,PERIGEE,DECAYED
49452.0,STARLINK-3150,PAYLOAD,2022-02-07 22:00:00,15.24322375,0.0001638,53.2175,71.9998,41.4652,280.3675,-0.028485,-0.00655052,0.0,0 STARLINK-3150,1 49452U 21104AW  22038.91667824 -.00655052  00000-0 -28485-1 0  9993,2 49452  53.2175  71.9998 0001638  41.4652 280.3675 15.24322375  3651,6870.958000000001,94.468,493.948,491.698,0.0
49452.0,STARLINK-3150,PAYLOAD,2022-02-08 04:00:00,15.23974529,0.0001851,53.2177,70.8524,40.4073,213.9136,-0.028931,-0.00658188,0.0,0 STARLINK-3150,1 49452U 21104AW  22039.16667824 -.00658188  00000-0 -28931-1 0  9990,2 49452  53.2177  70.8524 0001851  40.4073 213.9136 15.23974529 14838,6872.003000000002,94.49,495.14,492.596,0.0
49452.0,STARLINK-3150,PAYLOAD,2022-02-08 14:00:01,15.23390888,0.0001534,53.2173,68.942,44.1865,336.9154,-0.029386,-0.00657017,0.0,0 STARLINK-3150,1 49452U 21104AW  22039.58334491 -.00657017  00000-0 -29386-1 0  9992,2 49452  53.2173  68.9420 0001534  44.1865 336.9154 15.23390888  3659,6873.759,94.526,496.67800000000005,494.569,0.0
49452.0,STARLINK-3150,PAYLOAD,2022-02-08 22:00:01,15.2282585,0.0001720999999999,53.2172,67.4105,30.1101,19.9043,-0.023517,-0.00519766,0.0,0 STARLINK-3150,1 49452U 21104AW  22039.91668981 -.00519766  00000-0 -23517-1 0  9991,2 49452  53.2172  67.4105 0001721  30.1101  19.9043 15.22825850  3610,6875.459,94.561,498.507,496.14,0.0
49452.0,STARLINK-3150,PAYLOAD,2022-02-09 04:00:00,15.22575747,0.0001748,53.2178,66.2672,38.2747,302.8503,-0.030245,-0.00659806,0.0,0 STARLINK-3150,1 49452U 21104AW  22040.16667824 -.00659806  00000-0 -30245-1 0  9991,2 49452  53.2178  66.2672 0001748  38.2747 302.8503 15.22575747 14980,6876.212,94.577,499.279,496.875,0.0
49452.0,STARLINK-3150,PAYLOAD,2022-02-09 10:23:39,15.23334999,0.0001378,53.2151,65.0337,66.786,293.3284,-0.0091558,-0.00214263,0.0,0 STARLINK-3150,1 49452U 21104AW  22040.43309189 -.00214263  00000-0 -91558-2 0  9997,2 49452  53.2151  65.0337 0001378  66.7860 293.3284 15.23334999 15026,6873.927,94.529,496.739,494.844,0.0
49452.0,STARLINK-3150,PAYLOAD,2022-02-09 14:00:01,15.219907,0.0001564999999999,53.2172,64.3607,47.3029,58.5012,-0.030603,-0.00656366,0.0,0 STARLINK-3150,1 49452U 21104AW  22040.58334491 -.00656366  00000-0 -30603-1 0  9994,2 49452  53.2172  64.3607 0001565  47.3029  58.5012 15.21990700  3664,6877.974,94.613,500.915,498.762,0.0
49452.0,STARLINK-3150,PAYLOAD,2022-02-09 20:00:01,15.21641502,0.0001598,53.2175,63.2155,41.8356,354.3565,-0.03103,-0.0065852,0.0,0 STARLINK-3150,1 49452U 21104AW  22040.83334491 -.00658520  00000-0 -31030-1 0  9991,2 49452  53.2175  63.2155 0001598  41.8356 354.3565 15.21641502 15083,6879.026,94.635,501.99,499.792,0.0
49452.0,STARLINK-3150,PAYLOAD,2022-02-10 03:44:00,15.22343466,0.0002201,53.2144,61.7273,336.5913,23.4985,-0.0085384,-0.00194584,0.0,0 STARLINK-3150,1 49452U 21104AW  22041.15556025 -.00194584  00000-0 -85384-2 0  9993,2 49452  53.2144  61.7273 0002201 336.5913  23.4985 15.22343466 15133,6876.911,94.591,500.29,497.262,0.0
49452.0,STARLINK-3150,PAYLOAD,2022-02-10 12:00:00,15.20706005,0.0001676999999999,53.2174,60.1701,44.0842,44.9315,-0.031675,-0.00654254,0.0,0 STARLINK-3150,1 49452U 21104AW  22041.50001157 -.00654254  00000-0 -31675-1 0  9991,2 49452  53.2174  60.1701 0001677  44.0842  44.9315 15.20706005 15194,6881.847,94.693,504.866,502.5580000000001,0.0
49452.0,STARLINK-3150,PAYLOAD,2022-02-10 13:10:39,15.22680429,0.0002928,53.213,59.9196,338.3561,21.7313,-0.0043644,-0.00101891,0.0,0 STARLINK-3150,1 49452U 21104AW  22041.54906879 -.00101891  00000-0 -43644-2 0  9994,2 49452  53.2130  59.9196 0002928 338.3561  21.7313 15.22680429 14112,6875.896,94.57,499.775,495.74800000000016,0.0
49452.0,STARLINK-3150,PAYLOAD,2022-02-10 22:00:00,15.20124931,0.0001776,53.2173,58.2659,44.1082,166.7842,-0.032422,-0.00658075,0.0,0 STARLINK-3150,1 49452U 21104AW  22041.91667824 -.00658075  00000-0 -32422-1 0  9991,2 49452  53.2173  58.2659 0001776  44.1082 166.7842 15.20124931  3636,6883.6,94.729,506.68800000000016,504.24300000000005,0.0
49452.0,STARLINK-3150,PAYLOAD,2022-02-11 12:00:00,15.19304983,0.0001732,53.2174,55.6078,45.7993,118.2479,-0.032874,-0.00651908,0.0,0 STARLINK-3150,1 49452U 21104AW  22042.50001157 -.00651908  00000-0 -32874-1 0  9997,2 49452  53.2174  55.6078 0001732  45.7993 118.2479 15.19304983 15347,6886.0769999999975,94.78,509.135,506.749,0.0
49452.0,STARLINK-3150,PAYLOAD,2022-02-11 12:51:37,15.20223018,0.0002007,53.2146,55.4241,20.3741,339.7336,-0.014052,-0.00296571,0.0,0 STARLINK-3150,1 49452U 21104AW  22042.53584848 -.00296571  00000-0 -14052-1 0  9992,2 49452  53.2146  55.4241 0002007  20.3741 339.7336 15.20223018 14265,6883.304,94.723,506.551,503.788,0.0
49452.0,STARLINK-3150,PAYLOAD,2022-02-11 22:00:01,15.18723869,0.0001668,53.2174,53.7076,45.8303,238.0546,-0.033656,-0.00663025,0.0,0 STARLINK-3150,1 49452U 21104AW  22042.91668981 -.00663025  00000-0 -33656-1 0  9998,2 49452  53.2174  53.7076 0001668  45.8303 238.0546 15.18723869  3652,6887.833000000001,94.816,510.847,508.549,0.0
49452.0,STARLINK-3150,PAYLOAD,2022-02-12 10:58:27,15.18859964,9.39e-05,53.2148,51.2317,61.7646,298.3446,-0.015267,-0.00309092,0.0,0 STARLINK-3150,1 49452U 21104AW  22043.45726144 -.00309092  00000-0 -15267-1 0  9993,2 49452  53.2148  51.2317 0000939  61.7646 298.3446 15.18859964 15489,6887.422,94.808,509.934,508.64,0.0
49452.0,STARLINK-3150,PAYLOAD,2022-02-12 12:33:14,15.1882557,9.11e-05,53.2148,50.9323,43.5312,316.5757,-0.014871,-0.00301109,0.0,0 STARLINK-3150,1 49452U 21104AW  22043.52308324 -.00301109  00000-0 -14871-1 0  9998,2 49452  53.2148  50.9323 0000911  43.5312 316.5757 15.18825570 14416,6887.526,94.81,510.018,508.763,0.0
49452.0,STARLINK-3150,PAYLOAD,2022-02-12 20:00:01,15.17440316,0.0001688,53.2175,49.538,45.9758,210.2644,-0.034841,-0.00661444,0.0,0 STARLINK-3150,1 49452U 21104AW  22043.83334491 -.00661444  00000-0 -34841-1 0  9996,2 49452  53.2175  49.5380 0001688  45.9758 210.2644 15.17440316 15545,6891.717,94.897,514.745,512.419,0.0
49452.0,STARLINK-3150,PAYLOAD,2022-02-12 22:00:00,15.17323143,0.0001603,53.2174,49.1592,43.6472,308.0576,-0.034959,-0.00661438,0.0,0 STARLINK-3150,1 49452U 21104AW  22043.91667824 -.00661438  00000-0 -34959-1 0  9997,2 49452  53.2174  49.1592 0001603  43.6472 308.0576 15.17323143  3646,6892.071999999999,94.904,515.0409999999998,512.832,0.0
49452.0,STARLINK-3150,PAYLOAD,2022-02-13 14:00:01,15.16393383,0.0001585,53.2173,46.1338,44.082,350.0728,-0.03621,-0.00666689,0.0,0 STARLINK-3150,1 49452U 21104AW  22044.58334491 -.00666689  00000-0 -36210-1 0  9997,2 49452  53.2173  46.1338 0001585  44.0820 350.0728 15.16393383  3649,6894.889,94.962,517.846,515.661,0.0
49452.0,STARLINK-3150,PAYLOAD,2022-02-13 20:00:01,15.16039906,0.0001548,53.2174,44.9986,47.1894,272.3087,-0.036213,-0.00660437,0.0,0 STARLINK-3150,1 49452U 21104AW  22044.83334491 -.00660437  00000-0 -36213-1 0  9993,2 49452  53.2174  44.9986 0001548  47.1894 272.3087 15.16039906 15699,6895.96,94.984,518.893,516.758,0.0
49452.0,STARLINK-3150,PAYLOAD,2022-02-14 14:00:01,15.14992395,0.00016,53.2173,41.6016,46.3823,47.2463,-0.037548,-0.00664366,0.0,0 STARLINK-3150,1 49452U 21104AW  22045.58334491 -.00664366  00000-0 -37548-1 0  9993,2 49452  53.2173  41.6016 0001600  46.3823  47.2463 15.14992395  3634,6899.139,95.05,522.1080000000002,519.9,0.0
49452.0,STARLINK-3150,PAYLOAD,2022-02-14 20:00:01,15.14640116,0.0001534,53.2174,40.4688,45.3395,332.3707,-0.037697,-0.00660601,0.0,0 STARLINK-3150,1 49452U 21104AW  22045.83334491 -.00660601  00000-0 -37697-1 0  9994,2 49452  53.2174  40.4688 0001534  45.3395 332.3707 15.14640116 15842,6900.208000000001,95.072,523.132,521.015,0.0
49452.0,STARLINK-3150,PAYLOAD,2022-02-15 14:00:01,15.13529611,0.0001761999999999,53.2161,37.0777,40.0483,108.0404,-0.033614,-0.00570254,0.0,0 STARLINK-3150,1 49452U 21104AW  22046.58334491 -.00570254  00000-0 -33614-1 0  9996,2 49452  53.2161  37.0777 0001762  40.0483 108.0404 15.13529611  3611,6903.583000000001,95.142,526.665,524.232,0.0
49452.0,STARLINK-3150,PAYLOAD,2022-02-15 20:00:01,15.132412,0.0001672,53.2173,35.9488,41.1932,29.683000000000003,-0.039316,-0.00662156,0.0,0 STARLINK-3150,1 49452U 21104AW  22046.83334491 -.00662156  00000-0 -39316-1 0  9992,2 49452  53.2173  35.9488 0001672  41.1932  29.6830 15.13241200 16004,6904.46,95.16,527.48,525.1709999999998,0.0
49452.0,STARLINK-3150,PAYLOAD,2022-02-15 22:00:01,15.1312665,0.0001793,53.2174,35.5725,45.4331,119.7079,-0.039654,-0.00665487,0.0,0 STARLINK-3150,1 49452U 21104AW  22046.91668981 -.00665487  00000-0 -39654-1 0  9990,2 49452  53.2174  35.5725 0001793  45.4331 119.7079 15.13126650  3631,6904.809,95.167,527.9119999999998,525.436,0.0
49452.0,STARLINK-3150,PAYLOAD,2022-02-16 14:00:01,15.1219283,0.0001763,53.2173,32.5663,46.8618,150.5765,-0.040627,-0.00664247,0.0,0 STARLINK-3150,1 49452U 21104AW  22047.58334491 -.00664247  00000-0 -40627-1 0  9995,2 49452  53.2173  32.5663 0001763  46.8618 150.5765 15.12192830  3635,6907.651,95.226,530.734,528.298,0.0
49452.0,STARLINK-3150,PAYLOAD,2022-02-16 20:00:01,15.11842573,0.0001822,53.2173,31.4386,40.1635,78.8328,-0.04102,-0.00664143,0.0,0 STARLINK-3150,1 49452U 21104AW  22047.83334491 -.00664143  00000-0 -41020-1 0  9996,2 49452  53.2173  31.4386 0001822  40.1635  78.8328 15.11842573 16150,6908.718000000003,95.248,531.842,529.3240000000002,0.0
49452.0,STARLINK-3150,PAYLOAD,2022-02-16 22:00:00,15.11629973,0.0001759,53.2162,31.0613,44.892,167.9395,-0.032793,-0.00529961,0.0,0 STARLINK-3150,1 49452U 21104AW  22047.91667824 -.00529961  00000-0 -32793-1 0  9999,2 49452  53.2162  31.0613 0001759  44.8920 167.9395 15.11629973  3601,6909.366,95.261,532.446,530.015,0.0
